0 WESTFORD NEEDLES
1 19030U 63014DY  13280.93377266  .00000016  00000-0  61147-2 0   320
2 19030 087.3756 305.7214 0054781 309.2079 050.3907 08.64392786732197
0 WESTFORD NEEDLES
1 19030U 63014DY  13286.02532928  .00000053  00000-0  23597-1 0   332
2 19030 087.3645 305.2396 0055172 303.1965 055.2250 08.64392761732628
0 WESTFORD NEEDLES
1 19030U 63014DY  13291.51484394 -.00000006  00000-0 -40679-2 0   347
2 19030 087.3651 304.7236 0054982 297.7384 217.4952 08.64393631733105
0 WESTFORD NEEDLES
1 19030U 63014DY  13294.52540574  .00000024  00000-0  98709-2 0   350
2 19030 087.3676 304.4411 0054982 294.6860 225.8214 08.64393342733360
